STARLINK-36681          
1 68720U 26081X   26113.57864658 -.00762741  00000+0 -32148-2 0  9990
2 68720  53.1598 195.8242 0000997  56.4999 303.6122 15.86528464  1472
