{
  "norad_id": 68720,
  "name": "STARLINK-36681",
  "history": [
    {
      "epoch": "2026-04-23T13:53:15.064512Z",
      "apogee_km": 312.69141850454344,
      "perigee_km": 311.35740031950536,
      "latitude_deg": 5.668484069661432e-05,
      "longitude_deg": 135.88761189024177,
      "height_km": 312.57674946842457,
      "semi_major_axis_km": 6690.161409412024,
      "eccentricity": 9.97e-05,
      "inclination_deg": 53.1598,
      "raan_deg": 195.8242,
      "arg_perigee_deg": 56.4999,
      "mean_anomaly_deg": 303.6122,
      "mean_motion_rev_day": 15.86528464
    }
  ]
}